{"type": "FeatureCollection", "features": [{"type": "Feature", "geometry": {"type": "Point", "coordinates": [77.6293, 9.75537]}, "properties": {"date": "2026-08-08", "frp": 10.98, "confidence": "h", "risk": 0.5756399999999999, "brightness": 367.0}}, {"type": "Feature", "geometry": {"type": "Point", "coordinates": [77.68204, 9.77946]}, "properties": {"date": "2026-08-08", "frp": 2.63, "confidence": "n", "risk": 0.32034, "brightness": 333.54}}, {"type": "Feature", "geometry": {"type": "Point", "coordinates": [77.62386, 9.75953]}, "properties": {"date": "2026-08-08", "frp": 0.89, "confidence": "n", "risk": 0.28902, "brightness": 309.37}}, {"type": "Feature", "geometry": {"type": "Point", "coordinates": [78.04342, 8.89835]}, "properties": {"date": "2026-08-09", "frp": 1.95, "confidence": "n", "risk": 0.30810000000000004, "brightness": 335.75}}, {"type": "Feature", "geometry": {"type": "Point", "coordinates": [77.70798, 8.90778]}, "properties": {"date": "2026-08-09", "frp": 1.5, "confidence": "n", "risk": 0.30000000000000004, "brightness": 331.91}}, {"type": "Feature", "geometry": {"type": "Point", "coordinates": [78.68824, 9.23388]}, "properties": {"date": "2026-08-09", "frp": 2.14, "confidence": "n", "risk": 0.31152, "brightness": 333.0}}, {"type": "Feature", "geometry": {"type": "Point", "coordinates": [78.68773, 9.23726]}, "properties": {"date": "2026-08-09", "frp": 2.14, "confidence": "n", "risk": 0.31152, "brightness": 340.37}}, {"type": "Feature", "geometry": {"type": "Point", "coordinates": [78.76631, 9.25581]}, "properties": {"date": "2026-08-09", "frp": 2.38, "confidence": "n", "risk": 0.31584, "brightness": 338.32}}, {"type": "Feature", "geometry": {"type": "Point", "coordinates": [78.76579, 9.25919]}, "properties": {"date": "2026-08-09", "frp": 1.43, "confidence": "n", "risk": 0.29874, "brightness": 331.52}}, {"type": "Feature", "geometry": {"type": "Point", "coordinates": [79.12687, 9.27793]}, "properties": {"date": "2026-08-09", "frp": 6.85, "confidence": "n", "risk": 0.3963, "brightness": 335.7}}, {"type": "Feature", "geometry": {"type": "Point", "coordinates": [78.76228, 9.30707]}, "properties": {"date": "2026-08-09", "frp": 1.64, "confidence": "n", "risk": 0.30252, "brightness": 334.15}}, {"type": "Feature", "geometry": {"type": "Point", "coordinates": [77.86951, 9.40249]}, "properties": {"date": "2026-08-09", "frp": 8.77, "confidence": "n", "risk": 0.43086, "brightness": 344.04}}, {"type": "Feature", "geometry": {"type": "Point", "coordinates": [78.22846, 9.50695]}, "properties": {"date": "2026-08-09", "frp": 7.49, "confidence": "n", "risk": 0.40782, "brightness": 338.61}}, {"type": "Feature", "geometry": {"type": "Point", "coordinates": [77.81236, 9.55556]}, "properties": {"date": "2026-08-09", "frp": 12.87, "confidence": "n", "risk": 0.50466, "brightness": 341.93}}, {"type": "Feature", "geometry": {"type": "Point", "coordinates": [78.06435, 9.65162]}, "properties": {"date": "2026-08-09", "frp": 3.22, "confidence": "n", "risk": 0.33096000000000003, "brightness": 337.75}}, {"type": "Feature", "geometry": {"type": "Point", "coordinates": [78.38943, 9.80894]}, "properties": {"date": "2026-08-09", "frp": 2.49, "confidence": "n", "risk": 0.31782, "brightness": 336.39}}, {"type": "Feature", "geometry": {"type": "Point", "coordinates": [78.55554, 9.83043]}, "properties": {"date": "2026-08-09", "frp": 1.93, "confidence": "n", "risk": 0.30774, "brightness": 330.15}}, {"type": "Feature", "geometry": {"type": "Point", "coordinates": [78.29355, 9.88524]}, "properties": {"date": "2026-08-09", "frp": 19.84, "confidence": "n", "risk": 0.63012, "brightness": 335.89}}, {"type": "Feature", "geometry": {"type": "Point", "coordinates": [78.29712, 9.88578]}, "properties": {"date": "2026-08-09", "frp": 19.84, "confidence": "n", "risk": 0.63012, "brightness": 347.52}}, {"type": "Feature", "geometry": {"type": "Point", "coordinates": [79.56654, 10.70734]}, "properties": {"date": "2026-08-09", "frp": 16.49, "confidence": "n", "risk": 0.56982, "brightness": 347.98}}, {"type": "Feature", "geometry": {"type": "Point", "coordinates": [79.0443, 10.8716]}, "properties": {"date": "2026-08-09", "frp": 10.47, "confidence": "n", "risk": 0.46146, "brightness": 352.09}}, {"type": "Feature", "geometry": {"type": "Point", "coordinates": [78.43846, 10.9494]}, "properties": {"date": "2026-08-09", "frp": 2.47, "confidence": "n", "risk": 0.31746, "brightness": 338.87}}, {"type": "Feature", "geometry": {"type": "Point", "coordinates": [78.87568, 10.96547]}, "properties": {"date": "2026-08-09", "frp": 4.12, "confidence": "n", "risk": 0.34716, "brightness": 336.29}}, {"type": "Feature", "geometry": {"type": "Point", "coordinates": [78.23231, 11.19703]}, "properties": {"date": "2026-08-09", "frp": 5.29, "confidence": "n", "risk": 0.36822, "brightness": 336.41}}, {"type": "Feature", "geometry": {"type": "Point", "coordinates": [79.81661, 12.07076]}, "properties": {"date": "2026-08-09", "frp": 4.54, "confidence": "n", "risk": 0.35472000000000004, "brightness": 338.9}}, {"type": "Feature", "geometry": {"type": "Point", "coordinates": [77.46906, 12.71801]}, "properties": {"date": "2026-08-09", "frp": 8.87, "confidence": "n", "risk": 0.43266, "brightness": 339.87}}, {"type": "Feature", "geometry": {"type": "Point", "coordinates": [77.60217, 9.71063]}, "properties": {"date": "2026-08-09", "frp": 3.01, "confidence": "n", "risk": 0.32718, "brightness": 307.3}}, {"type": "Feature", "geometry": {"type": "Point", "coordinates": [77.59763, 9.71142]}, "properties": {"date": "2026-08-09", "frp": 3.01, "confidence": "n", "risk": 0.32718, "brightness": 326.39}}, {"type": "Feature", "geometry": {"type": "Point", "coordinates": [77.60028, 9.71238]}, "properties": {"date": "2026-08-09", "frp": 5.68, "confidence": "n", "risk": 0.37524, "brightness": 342.1}}, {"type": "Feature", "geometry": {"type": "Point", "coordinates": [77.60211, 9.7151]}, "properties": {"date": "2026-08-09", "frp": 3.01, "confidence": "n", "risk": 0.32718, "brightness": 318.67}}, {"type": "Feature", "geometry": {"type": "Point", "coordinates": [77.59735, 9.71592]}, "properties": {"date": "2026-08-09", "frp": 3.01, "confidence": "n", "risk": 0.32718, "brightness": 333.99}}, {"type": "Feature", "geometry": {"type": "Point", "coordinates": [77.59991, 9.71691]}, "properties": {"date": "2026-08-09", "frp": 5.68, "confidence": "n", "risk": 0.37524, "brightness": 322.27}}, {"type": "Feature", "geometry": {"type": "Point", "coordinates": [77.60168, 9.71963]}, "properties": {"date": "2026-08-09", "frp": 0.83, "confidence": "n", "risk": 0.28794000000000003, "brightness": 307.9}}, {"type": "Feature", "geometry": {"type": "Point", "coordinates": [77.60912, 9.71971]}, "properties": {"date": "2026-08-09", "frp": 1.92, "confidence": "n", "risk": 0.30756, "brightness": 316.36}}, {"type": "Feature", "geometry": {"type": "Point", "coordinates": [77.60439, 9.72057]}, "properties": {"date": "2026-08-09", "frp": 1.92, "confidence": "n", "risk": 0.30756, "brightness": 325.17}}, {"type": "Feature", "geometry": {"type": "Point", "coordinates": [77.61123, 9.72244]}, "properties": {"date": "2026-08-09", "frp": 3.78, "confidence": "n", "risk": 0.34104, "brightness": 314.72}}, {"type": "Feature", "geometry": {"type": "Point", "coordinates": [77.60651, 9.72325]}, "properties": {"date": "2026-08-09", "frp": 3.78, "confidence": "n", "risk": 0.34104, "brightness": 334.47}}, {"type": "Feature", "geometry": {"type": "Point", "coordinates": [77.60929, 9.72415]}, "properties": {"date": "2026-08-09", "frp": 1.92, "confidence": "n", "risk": 0.30756, "brightness": 319.58}}, {"type": "Feature", "geometry": {"type": "Point", "coordinates": [77.60458, 9.725]}, "properties": {"date": "2026-08-09", "frp": 1.92, "confidence": "n", "risk": 0.30756, "brightness": 302.41}}, {"type": "Feature", "geometry": {"type": "Point", "coordinates": [77.10945, 10.41551]}, "properties": {"date": "2026-08-09", "frp": 2.55, "confidence": "n", "risk": 0.3189, "brightness": 320.29}}, {"type": "Feature", "geometry": {"type": "Point", "coordinates": [77.87334, 8.66499]}, "properties": {"date": "2026-08-10", "frp": 6.53, "confidence": "n", "risk": 0.39054, "brightness": 340.85}}, {"type": "Feature", "geometry": {"type": "Point", "coordinates": [77.72398, 8.74038]}, "properties": {"date": "2026-08-10", "frp": 2.94, "confidence": "n", "risk": 0.32592, "brightness": 332.77}}, {"type": "Feature", "geometry": {"type": "Point", "coordinates": [77.54341, 9.11507]}, "properties": {"date": "2026-08-10", "frp": 5.08, "confidence": "n", "risk": 0.36444, "brightness": 346.35}}, {"type": "Feature", "geometry": {"type": "Point", "coordinates": [78.80767, 9.42565]}, "properties": {"date": "2026-08-10", "frp": 8.7, "confidence": "l", "risk": 0.3036, "brightness": 336.8}}, {"type": "Feature", "geometry": {"type": "Point", "coordinates": [78.5205, 9.53488]}, "properties": {"date": "2026-08-10", "frp": 2.49, "confidence": "l", "risk": 0.19182, "brightness": 330.49}}, {"type": "Feature", "geometry": {"type": "Point", "coordinates": [78.09645, 9.65751]}, "properties": {"date": "2026-08-10", "frp": 4.57, "confidence": "n", "risk": 0.35526, "brightness": 338.99}}, {"type": "Feature", "geometry": {"type": "Point", "coordinates": [78.09887, 9.65848]}, "properties": {"date": "2026-08-10", "frp": 5.64, "confidence": "n", "risk": 0.37452, "brightness": 336.36}}, {"type": "Feature", "geometry": {"type": "Point", "coordinates": [77.40768, 9.67706]}, "properties": {"date": "2026-08-10", "frp": 27.78, "confidence": "n", "risk": 0.77304, "brightness": 353.93}}, {"type": "Feature", "geometry": {"type": "Point", "coordinates": [77.59943, 9.70958]}, "properties": {"date": "2026-08-10", "frp": 6.59, "confidence": "n", "risk": 0.39162, "brightness": 339.29}}, {"type": "Feature", "geometry": {"type": "Point", "coordinates": [78.1714, 9.90223]}, "properties": {"date": "2026-08-10", "frp": 2.8, "confidence": "n", "risk": 0.3234, "brightness": 335.02}}, {"type": "Feature", "geometry": {"type": "Point", "coordinates": [78.03323, 10.007]}, "properties": {"date": "2026-08-10", "frp": 19.23, "confidence": "n", "risk": 0.61914, "brightness": 355.73}}, {"type": "Feature", "geometry": {"type": "Point", "coordinates": [79.41708, 10.40051]}, "properties": {"date": "2026-08-10", "frp": 8.13, "confidence": "n", "risk": 0.41934000000000005, "brightness": 346.89}}, {"type": "Feature", "geometry": {"type": "Point", "coordinates": [79.25768, 11.73288]}, "properties": {"date": "2026-08-10", "frp": 6.56, "confidence": "n", "risk": 0.39108, "brightness": 339.42}}, {"type": "Feature", "geometry": {"type": "Point", "coordinates": [79.78356, 12.09698]}, "properties": {"date": "2026-08-10", "frp": 8.28, "confidence": "n", "risk": 0.42203999999999997, "brightness": 346.95}}, {"type": "Feature", "geometry": {"type": "Point", "coordinates": [76.95238, 12.56739]}, "properties": {"date": "2026-08-10", "frp": 6.39, "confidence": "n", "risk": 0.38802000000000003, "brightness": 341.37}}, {"type": "Feature", "geometry": {"type": "Point", "coordinates": [78.05886, 8.69899]}, "properties": {"date": "2026-08-10", "frp": 1.16, "confidence": "n", "risk": 0.29388000000000003, "brightness": 316.48}}, {"type": "Feature", "geometry": {"type": "Point", "coordinates": [77.49845, 9.20653]}, "properties": {"date": "2026-08-10", "frp": 1.56, "confidence": "n", "risk": 0.30108, "brightness": 310.68}}, {"type": "Feature", "geometry": {"type": "Point", "coordinates": [77.39169, 9.28078]}, "properties": {"date": "2026-08-10", "frp": 2.94, "confidence": "n", "risk": 0.32592, "brightness": 329.87}}, {"type": "Feature", "geometry": {"type": "Point", "coordinates": [77.44958, 9.52627]}, "properties": {"date": "2026-08-10", "frp": 3.14, "confidence": "n", "risk": 0.32952000000000004, "brightness": 320.1}}, {"type": "Feature", "geometry": {"type": "Point", "coordinates": [77.44609, 9.52684]}, "properties": {"date": "2026-08-10", "frp": 3.14, "confidence": "n", "risk": 0.32952000000000004, "brightness": 315.95}}, {"type": "Feature", "geometry": {"type": "Point", "coordinates": [77.44995, 9.52966]}, "properties": {"date": "2026-08-10", "frp": 3.14, "confidence": "n", "risk": 0.32952000000000004, "brightness": 337.96}}, {"type": "Feature", "geometry": {"type": "Point", "coordinates": [77.44653, 9.53022]}, "properties": {"date": "2026-08-10", "frp": 3.14, "confidence": "n", "risk": 0.32952000000000004, "brightness": 342.64}}, {"type": "Feature", "geometry": {"type": "Point", "coordinates": [77.58917, 9.70315]}, "properties": {"date": "2026-08-10", "frp": 6.37, "confidence": "n", "risk": 0.38766, "brightness": 344.88}}, {"type": "Feature", "geometry": {"type": "Point", "coordinates": [77.58966, 9.70653]}, "properties": {"date": "2026-08-10", "frp": 1.61, "confidence": "n", "risk": 0.30198, "brightness": 309.63}}, {"type": "Feature", "geometry": {"type": "Point", "coordinates": [77.59083, 9.71671]}, "properties": {"date": "2026-08-10", "frp": 1.08, "confidence": "n", "risk": 0.29244000000000003, "brightness": 305.73}}, {"type": "Feature", "geometry": {"type": "Point", "coordinates": [77.61427, 9.72326]}, "properties": {"date": "2026-08-10", "frp": 0.32, "confidence": "n", "risk": 0.27876, "brightness": 303.75}}, {"type": "Feature", "geometry": {"type": "Point", "coordinates": [77.68813, 9.89699]}, "properties": {"date": "2026-08-10", "frp": 2.01, "confidence": "n", "risk": 0.30918, "brightness": 321.31}}, {"type": "Feature", "geometry": {"type": "Point", "coordinates": [77.68868, 9.90036]}, "properties": {"date": "2026-08-10", "frp": 2.83, "confidence": "n", "risk": 0.32394, "brightness": 330.49}}, {"type": "Feature", "geometry": {"type": "Point", "coordinates": [77.91492, 9.16179]}, "properties": {"date": "2026-08-11", "frp": 3.53, "confidence": "n", "risk": 0.33654, "brightness": 341.92}}, {"type": "Feature", "geometry": {"type": "Point", "coordinates": [78.6193, 10.83465]}, "properties": {"date": "2026-08-11", "frp": 11.21, "confidence": "n", "risk": 0.47478, "brightness": 340.31}}, {"type": "Feature", "geometry": {"type": "Point", "coordinates": [78.50113, 10.93295]}, "properties": {"date": "2026-08-11", "frp": 2.47, "confidence": "n", "risk": 0.31746, "brightness": 335.0}}, {"type": "Feature", "geometry": {"type": "Point", "coordinates": [78.50137, 10.93614]}, "properties": {"date": "2026-08-11", "frp": 7.51, "confidence": "n", "risk": 0.40818, "brightness": 334.18}}, {"type": "Feature", "geometry": {"type": "Point", "coordinates": [79.1266, 11.65238]}, "properties": {"date": "2026-08-11", "frp": 9.66, "confidence": "n", "risk": 0.44688, "brightness": 341.69}}, {"type": "Feature", "geometry": {"type": "Point", "coordinates": [78.21772, 12.29835]}, "properties": {"date": "2026-08-11", "frp": 3.83, "confidence": "n", "risk": 0.34194, "brightness": 331.88}}, {"type": "Feature", "geometry": {"type": "Point", "coordinates": [77.45166, 9.52184]}, "properties": {"date": "2026-08-11", "frp": 0.75, "confidence": "n", "risk": 0.28650000000000003, "brightness": 305.29}}, {"type": "Feature", "geometry": {"type": "Point", "coordinates": [77.45146, 9.53687]}, "properties": {"date": "2026-08-11", "frp": 3.07, "confidence": "n", "risk": 0.32826, "brightness": 318.31}}, {"type": "Feature", "geometry": {"type": "Point", "coordinates": [77.42188, 10.61676]}, "properties": {"date": "2026-08-11", "frp": 0.72, "confidence": "n", "risk": 0.28596, "brightness": 305.01}}, {"type": "Feature", "geometry": {"type": "Point", "coordinates": [77.06483, 10.93105]}, "properties": {"date": "2026-08-11", "frp": 1.31, "confidence": "n", "risk": 0.29658, "brightness": 305.29}}, {"type": "Feature", "geometry": {"type": "Point", "coordinates": [77.6194, 12.74482]}, "properties": {"date": "2026-08-11", "frp": 0.42, "confidence": "n", "risk": 0.28056000000000003, "brightness": 297.44}}]}